NORAD_CAT_ID,OBJECT_NAME,OBJECT_TYPE,EPOCH,MEAN_MOTION,ECCENTRICITY,INCLINATION,RA_OF_ASC_NODE,ARG_OF_PERICENTER,MEAN_ANOMALY,BSTAR,MEAN_MOTION_DOT,MEAN_MOTION_DDOT,TLE_LINE0,TLE_LINE1,TLE_LINE2,SEMIMAJOR_AXIS,PERIOD,APOGEE,PERIGEE,DECAYED
53789.0,STARLINK-4666,PAYLOAD,2022-11-27 14:00:01,15.08816948,0.0001705,53.2138,252.3933,44.7848,41.5125,0.0019075,0.00030181,0.0,0 STARLINK-4666,1 53789U 22111S   22331.58334491  .00030181  00000-0  19075-2 0  9994,2 53789  53.2138 252.3933 0001705  44.7848  41.5125 15.08816948 12013,6917.951,95.439,540.995,538.636,0.0
53789.0,STARLINK-4666,PAYLOAD,2022-11-27 22:00:00,15.08862321,0.0001788,53.2137,250.8976,45.7437,52.1283,-0.0023628,-0.00037719,0.0,0 STARLINK-4666,1 53789U 22111S   22331.91667824 -.00037719  00000-0 -23628-2 0  9995,2 53789  53.2137 250.8976 0001788  45.7437  52.1283 15.08862321  1307,6917.812,95.436,540.914,538.44,0.0
53789.0,STARLINK-4666,PAYLOAD,2022-11-28 06:00:00,15.08817075,0.000189,53.2133,249.4022,39.2364,70.2517,0.0020478,0.00032433,0.0,0 STARLINK-4666,1 53789U 22111S   22332.25001157  .00032433  00000-0  20478-2 0  9990,2 53789  53.2133 249.4022 0001890  39.2364  70.2517 15.08817075 12118,6917.95,95.439,541.123,538.508,0.0
53789.0,STARLINK-4666,PAYLOAD,2022-11-28 22:00:01,15.08860107,0.0001839,53.2133,246.4081,44.6119,88.1094,-0.0012976,-0.00020892,0.0,0 STARLINK-4666,1 53789U 22111S   22332.91668981 -.00020892  00000-0 -12976-2 0  9999,2 53789  53.2133 246.4081 0001839  44.6119  88.1094 15.08860107  1302,6917.819,95.436,540.956,538.4119999999998,0.0
53789.0,STARLINK-4666,PAYLOAD,2022-11-29 14:00:01,15.08816094,0.0001703,53.2133,243.4143,39.94,116.0089,0.0005546,8.544e-05,0.0,0 STARLINK-4666,1 53789U 22111S   22333.58335648  .00008544  00000-0  55460-3 0  9998,2 53789  53.2133 243.4143 0001703  39.9400 116.0089 15.08816094  1309,6917.953,95.439,540.997,538.64,0.0
53789.0,STARLINK-4666,PAYLOAD,2022-11-29 22:00:00,15.08834829,0.0001816,53.2135,241.9186,40.2961,127.1562,-0.0011928,-0.00019219,0.0,0 STARLINK-4666,1 53789U 22111S   22333.91667824 -.00019219  00000-0 -11928-2 0  9992,2 53789  53.2135 241.9186 0001816  40.2961 127.1562 15.08834829  1308,6917.896,95.438,541.0169999999998,538.505,0.0
53789.0,STARLINK-4666,PAYLOAD,2022-11-30 06:00:00,15.08816644,0.0001957,53.2134,240.423,36.1413,142.8931,0.0024434,0.00038789,0.0,0 STARLINK-4666,1 53789U 22111S   22334.25001157  .00038789  00000-0  24434-2 0  9998,2 53789  53.2134 240.4230 0001957  36.1413 142.8931 15.08816644 12416,6917.9519999999975,95.439,541.1709999999998,538.4630000000002,0.0
53789.0,STARLINK-4666,PAYLOAD,2022-11-30 14:00:01,15.08831215,0.0001733,53.2141,238.9247,40.4642,150.2227,-0.0001252999999999,-2.281e-05,0.0,0 STARLINK-4666,1 53789U 22111S   22334.58335648 -.00002281  00000-0 -12530-3 0  9994,2 53789  53.2141 238.9247 0001733  40.4642 150.2227 15.08831215  1306,6917.906999999997,95.438,540.971,538.573,0.0
53789.0,STARLINK-4666,PAYLOAD,2022-11-30 22:00:00,15.08827313,0.0001799,53.2155,237.4294,42.2709,159.9386,0.0001209,1.636e-05,0.0,0 STARLINK-4666,1 53789U 22111S   22334.91667824  .00001636  00000-0  12090-3 0  9997,2 53789  53.2155 237.4294 0001799  42.2709 159.9386 15.08827313 12514,6917.919,95.438,541.029,538.54,0.0
53789.0,STARLINK-4666,PAYLOAD,2022-12-01 14:00:01,15.08840089,0.0001822,53.2142,234.4352,41.9965,183.4137,0.00070435,0.0001094,0.0,0 STARLINK-4666,1 53789U 22111S   22335.58334491  .00010940  00000-0  70435-3 0  9997,2 53789  53.2142 234.4352 0001822  41.9965 183.4137 15.08840089  1305,6917.88,95.438,541.006,538.485,0.0
53789.0,STARLINK-4666,PAYLOAD,2022-12-01 22:00:00,15.08844591,0.0002005,53.2144,232.9398,42.738,194.2721,-0.00059319,-9.718e-05,0.0,0 STARLINK-4666,1 53789U 22111S   22335.91667824 -.00009718  00000-0 -59319-3 0  9994,2 53789  53.2144 232.9398 0002005  42.7380 194.2721 15.08844591 12666,6917.866,95.437,541.118,538.344,0.0
53789.0,STARLINK-4666,PAYLOAD,2022-12-02 14:00:01,15.08808404,0.0001845,53.2145,229.9457,43.4015,216.8128,0.0029699,0.00047254,0.0,0 STARLINK-4666,1 53789U 22111S   22336.58334491  .00047254  00000-0  29699-2 0  9991,2 53789  53.2145 229.9457 0001845  43.4015 216.8128 15.08808404  1307,6917.977,95.44,541.118,538.566,0.0
53789.0,STARLINK-4666,PAYLOAD,2022-12-02 22:00:00,15.08842919,0.0001969,53.2146,228.4506,41.9996,229.7877,-0.00083687,-0.00013584,0.0,0 STARLINK-4666,1 53789U 22111S   22336.91667824 -.00013584  00000-0 -83687-3 0  9996,2 53789  53.2146 228.4506 0001969  41.9996 229.7877 15.08842919  1308,6917.871,95.437,541.099,538.374,0.0
53789.0,STARLINK-4666,PAYLOAD,2022-12-03 06:00:00,15.08857678,0.0001989,53.2142,226.9544,38.5581,244.8184,-0.002816,-0.00044849,0.0,0 STARLINK-4666,1 53789U 22111S   22337.25001157 -.00044849  00000-0 -28160-2 0  9997,2 53789  53.2142 226.9544 0001989  38.5581 244.8184 15.08857678 12863,6917.826,95.436,541.067,538.315,0.0
53789.0,STARLINK-4666,PAYLOAD,2022-12-03 14:00:01,15.08797934,0.0001776999999999,53.2143,225.4564,43.2215,251.7608,0.0033957,0.00054108,0.0,0 STARLINK-4666,1 53789U 22111S   22337.58334491  .00054108  00000-0  33957-2 0  9990,2 53789  53.2143 225.4564 0001777  43.2215 251.7608 15.08797934  1305,6918.009,95.44,541.1030000000002,538.645,0.0
53789.0,STARLINK-4666,PAYLOAD,2022-12-03 22:00:00,15.08838392,0.0001934,53.2143,223.9615,41.6534,264.8964,-0.00086733,-0.00014065,0.0,0 STARLINK-4666,1 53789U 22111S   22337.91667824 -.00014065  00000-0 -86733-3 0  9997,2 53789  53.2143 223.9615 0001934  41.6534 264.8964 15.08838392  1300,6917.885,95.438,541.0880000000002,538.4119999999998,0.0
53789.0,STARLINK-4666,PAYLOAD,2022-12-04 14:00:01,15.08831981,0.000185,53.2138,220.9674,47.1261,282.6115,0.001344,0.00021162,0.0,0 STARLINK-4666,1 53789U 22111S   22338.58334491  .00021162  00000-0  13440-2 0  9990,2 53789  53.2138 220.9674 0001850  47.1261 282.6115 15.08831981  1304,6917.905,95.438,541.05,538.49,0.0
53789.0,STARLINK-4666,PAYLOAD,2022-12-04 22:00:00,15.08838832,0.0002084,53.2138,219.4725,46.4681,294.867,-0.0011921,-0.0001921,0.0,0 STARLINK-4666,1 53789U 22111S   22338.91667824 -.00019210  00000-0 -11921-2 0  9991,2 53789  53.2138 219.4725 0002084  46.4681 294.8670 15.08838832  1305,6917.884,95.438,541.191,538.307,0.0
53789.0,STARLINK-4666,PAYLOAD,2022-12-05 06:00:00,15.08849272,0.0002109,53.2133,217.976,44.448,308.471,-0.00049783,-8.205e-05,0.0,0 STARLINK-4666,1 53789U 22111S   22339.25001157 -.00008205  00000-0 -49783-3 0  9990,2 53789  53.2133 217.9760 0002109  44.4480 308.4710 15.08849272 13170,6917.852,95.437,541.1759999999998,538.258,0.0
53789.0,STARLINK-4666,PAYLOAD,2022-12-05 14:00:01,15.08824028,0.0001985,53.2133,216.4781,50.8872,313.7005,0.0034379,0.00054829,0.0,0 STARLINK-4666,1 53789U 22111S   22339.58335648  .00054829  00000-0  34379-2 0  9996,2 53789  53.2133 216.4781 0001985  50.8872 313.7005 15.08824028  1304,6917.929,95.439,541.1669999999998,538.4209999999998,0.0
53789.0,STARLINK-4666,PAYLOAD,2022-12-05 16:00:00,15.08845259,0.0002011,53.2135,216.1042,51.6979,45.719,0.001687,0.00026667,0.0,0 STARLINK-4666,1 53789U 22111S   22339.66667824  .00026667  00000-0  16870-2 0  9994,2 53789  53.2135 216.1042 0002011  51.6979  45.7190 15.08845259  1307,6917.864000000001,95.437,541.12,538.3380000000002,0.0
53789.0,STARLINK-4666,PAYLOAD,2022-12-06 01:06:32,15.08844335,0.0002101,53.2148,214.4003,45.833,314.2835,0.00010454,1.376e-05,0.0,0 STARLINK-4666,1 53789U 22111S   22340.04620790  .00001376  00000-0  10454-3 0  9992,2 53789  53.2148 214.4003 0002101  45.8330 314.2835 15.08844335 13290,6917.8669999999975,95.437,541.186,538.279,0.0
53789.0,STARLINK-4666,PAYLOAD,2022-12-06 09:03:28,15.08844455,0.0002125,53.2148,212.9138,45.7787,314.3379,8.3014e-05,1.033e-05,0.0,0 STARLINK-4666,1 53789U 22111S   22340.37740789  .00001033  00000-0  83014-4 0  9992,2 53789  53.2148 212.9138 0002125  45.7787 314.3379 15.08844455 14145,6917.8669999999975,95.437,541.202,538.262,0.0
53789.0,STARLINK-4666,PAYLOAD,2022-12-06 23:21:57,15.08827878,0.0002085,53.2159,210.2378,46.5452,313.5714,-8.348e-05,-1.616e-05,0.0,0 STARLINK-4666,1 53789U 22111S   22340.97358485 -.00001616  00000-0 -83480-4 0  9992,2 53789  53.2159 210.2378 0002085  46.5452 313.5714 15.08827878 13432,6917.917,95.438,541.225,538.34,0.0
53789.0,STARLINK-4666,PAYLOAD,2022-12-07 08:54:16,15.08831457,0.0002274,53.2163,208.4528,44.952,315.1656,-3.0452e-05,-7.73e-06,0.0,0 STARLINK-4666,1 53789U 22111S   22341.37102264 -.00000773  00000-0 -30452-4 0  9993,2 53789  53.2163 208.4528 0002274  44.9520 315.1656 15.08831457 13498,6917.906999999997,95.438,541.345,538.198,0.0
53789.0,STARLINK-4666,PAYLOAD,2022-12-07 21:37:21,15.08837578,0.0001914,53.2155,206.0747,39.9983,320.115,-9.5095e-05,-1.801e-05,0.0,0 STARLINK-4666,1 53789U 22111S   22341.90094219 -.00001801  00000-0 -95095-4 0  9999,2 53789  53.2155 206.0747 0001914  39.9983 320.1150 15.08837578 14376,6917.888000000001,95.438,541.077,538.429,0.0
53789.0,STARLINK-4666,PAYLOAD,2022-12-08 23:03:30,15.08836681,0.0002063,53.217,201.3185,47.2503,312.8662,0.00010797,1.4300000000000004e-05,0.0,0 STARLINK-4666,1 53789U 22111S   22342.96077249  .00001430  00000-0  10797-3 0  9991,2 53789  53.2170 201.3185 0002063  47.2503 312.8662 15.08836681 13732,6917.891,95.438,541.183,538.328,0.0
53789.0,STARLINK-4666,PAYLOAD,2022-12-09 19:43:32,15.088281699999998,0.0001641,53.2179,197.4579,63.7867,296.3294,-4.1973e-05,-9.56e-06,0.0,0 STARLINK-4666,1 53789U 22111S   22343.82190541 -.00000956  00000-0 -41973-4 0  9993,2 53789  53.2179 197.4579 0001641  63.7867 296.3294 15.08828170 13865,6917.917,95.438,540.9169999999998,538.646,0.0
53789.0,STARLINK-4666,PAYLOAD,2022-12-10 00:29:43,15.08822534,0.0001878,53.2159,196.564,45.4613,314.6532,-0.00018567,-3.24e-05,0.0,0 STARLINK-4666,1 53789U 22111S   22344.02063712 -.00003240  00000-0 -18567-3 0  9996,2 53789  53.2159 196.5640 0001878  45.4613 314.6532 15.08822534 13890,6917.934,95.439,541.0980000000002,538.5,0.0
